APRIZESAT 2             
1 28366U 04025A   26176.70392819  .00000196  00000+0  74118-4 0  9997
2 28366  98.1021 342.2025 0104678 223.8594 135.4249 14.38039119152864
SAUDICOMSAT 1           
1 28369U 04025D   26177.02196466  .00000347  00000+0  90748-4 0  9991
2 28369  98.5770 187.3917 0032072 358.8347   1.2769 14.55480109165413
SAUDICOMSAT 2           
1 28370U 04025E   26177.02695338  .00000218  00000+0  68055-4 0  9998
2 28370  98.6639 189.5233 0054459 232.1903 127.4353 14.49985558161383
APRIZESAT 1             
1 28372U 04025G   26176.97879554  .00000258  00000+0  75516-4 0  9991
2 28372  98.6302 187.9436 0045516 127.5972 232.9368 14.51781562163186
NANOSAT-1               
1 28493U 04049B   26176.95719270  .00000955  00000+0  13306-3 0  9999
2 28493  98.2285 313.8330 0002724 261.1475  98.9427 14.80175308156743
SAUDICOMSAT 7           
1 31119U 07012C   26177.18982164  .00000484  00000+0  95708-4 0  9995
2 31119  98.3781 151.5057 0055928 166.9473 193.3192 14.66118023 23759
SAUDICOMSAT 6           
1 31121U 07012E   26176.84716803  .00000492  00000+0  10382-3 0  9998
2 31121  98.4101 144.5248 0070589 300.4507  58.9733 14.62567362 21458
SAUDICOMSAT 5           
1 31124U 07012H   26176.87807922  .00000661  00000+0  12198-3 0  9992
2 31124  98.3493 151.9329 0048721  98.0554 262.6182 14.68167001 24874
SAUDICOMSAT 3           
1 31125U 07012J   26176.89157851  .00000829  00000+0  14324-3 0  9993
2 31125  98.3146 152.4943 0039730  26.3675 333.9541 14.70719574 26106
SAUDICOMSAT 4           
1 31127U 07012L   26177.17323771  .00000413  00000+0  85759-4 0  9993
2 31127  98.3987 149.9271 0062334 229.5853 129.9901 14.64519882 22604
APRIZESAT 4             
1 35684U 09041D   26177.15799374  .00000603  00000+0  78572-4 0  9999
2 35684  98.1410 252.6572 0041971 293.2143  66.4653 14.83889998912690
APRIZESAT 3             
1 35686U 09041F   26176.99324131  .00001086  00000+0  98317-4 0  9992
2 35686  98.2075 330.6394 0062573  39.0341 321.5369 14.96267873917696
S-NET D                 
1 43186U 18014G   26176.70864373  .00005508  00000+0  28398-3 0  9996
2 43186  97.5359  81.4457 0008026   2.7600 357.3675 15.16746562460056
S-NET B                 
1 43187U 18014H   26176.98415782  .00005231  00000+0  27009-3 0  9994
2 43187  97.5364  81.7067 0008424 356.0360   4.0805 15.16719444460097
S-NET A                 
1 43188U 18014J   26176.97136337  .00005346  00000+0  27568-3 0  9997
2 43188  97.5376  81.9043 0008360 357.0429   3.0753 15.16756821460094
S-NET C                 
1 43189U 18014K   26177.18599978  .00005236  00000+0  27034-3 0  9992
2 43189  97.5389  82.1941 0009415 346.9277  13.1711 15.16713923458672
SALSAT                  
1 46495U 20068K   26176.97551410  .00008659  00000+0  30155-3 0  9992
2 46495  97.8851 180.5757 0007809 270.5499  89.4845 15.29916367316705
OOV-CUBE (TUBSAT-30)    
1 60240U 24128F   26177.17123080  .00001669  00000+0  13738-3 0  9990
2 60240  61.9924 194.2449 0043514 135.7765 224.6817 15.02803473107460
LPNTSAT-001 (IOD-1)     
1 68408U 26065A   26176.90655220  .00002773  00000+0  13703-3 0  9991
2 68408  97.4014  57.2316 0015731 340.0376  20.0241 15.18578906 13583
